{"fetched_at":"2026-04-10T02:16:47Z","count":4845,"tles":[{"name":"STARLINK-34236","line1":"1 64743U 25144V   26099.26945297 -.00013283  00000+0 -43695-3 0  9998","line2":"2 64743  53.1604  39.0066 0000136  54.2990 305.8023 15.30216774 44395","category":"Starlink"},{"name":"ATHENA-FIDUS","line1":"1 39509U 14006B   26099.60301292  .00000156  00000+0  00000+0 0  9996","line2":"2 39509   0.0171 129.5075 0001519 276.7563  46.4752  1.00274531 44399","category":"Other"},{"name":"2022-096L","line1":"1 53380U 22096L   23362.49335134  .00029932  00000+0  67413-3 0  9994","line2":"2 53380  97.4031 269.7437 0004833  86.3474 273.8326 15.43223797 77506","category":"Other"},{"name":"STARLINK-32362","line1":"1 61845U 24202A   26099.26542301  .00000107  00000+0  13429-4 0  9993","line2":"2 61845  43.0056  54.0818 0001014 266.2010  93.8725 15.27581779 80726","category":"Starlink"},{"name":"MR-1","line1":"1 67557U 26015B   26099.48592954  .00000068  00000+0  84016-4 0  9992","line2":"2 67557  88.9929 275.5195 0001380 287.6255  72.4746 13.52667078 10420","category":"Other"},{"name":"STARLINK-31777","line1":"1 59619U 24080U   26099.65143891  .00000831  00000+0  39715-4 0  9997","line2":"2 59619  42.9997 226.8707 0001158 272.8374  87.2345 15.27576160109225","category":"Starlink"},{"name":"STARLINK-35303","line1":"1 65860U 25223G   26099.45199672  .00013991  00000+0  48363-3 0  9997","line2":"2 65860  53.1580 151.4200 0000799  94.6441 265.4651 15.30197394 28916","category":"Starlink"},{"name":"ONEWEB-0686","line1":"1 56721U 23068M   26099.65483157  .00000019  00000+0  15220-4 0  9998","line2":"2 56721  87.9043 242.4157 0001701  89.4389 270.6937 13.16593122142698","category":"Other"},{"name":"STARLINK-32874","line1":"1 62954U 25029G   26099.33540572  .00023007  00000+0  78672-3 0  9993","line2":"2 62954  53.1578  87.6924 0001171  86.4079 273.7056 15.30191101 66056","category":"Starlink"},{"name":"STARLINK-6129","line1":"1 76129C 23090R   23185.64215278 -.00982949  00000-0 -60661-2 0  1854","line2":"2 76129  42.9996 215.1354 0001247 265.2489 328.3670 15.77155408    10","category":"Starlink"},{"name":"NIMIQ 4","line1":"1 33373U 08044A   26099.57909282 -.00000219  00000+0  00000+0 0  9994","line2":"2 33373   0.0089 214.6197 0002308 156.8134 312.8631  1.00271739 64294","category":"Other"},{"name":"STARLINK-2756","line1":"1 48683U 21044AX  26098.79135675  .00002930  00000+0  11103-3 0  9990","line2":"2 48683  53.1599 285.3209 0000992  71.7819 288.3290 15.30195932269114","category":"Starlink"},{"name":"STARLINK-3594","line1":"1 51895U 22022AV  26099.60096196  .00000629  00000+0  57592-4 0  9997","line2":"2 51895  53.2169 220.3534 0001333  85.1293 274.9851 15.08841743227911","category":"Starlink"},{"name":"TIANJIN BINHAI-1","line1":"1 53459U 22098R   23362.46768162  .00035019  00000+0  11447-2 0  9999","line2":"2 53459  97.5254 101.5894 0005020 336.7264  23.3749 15.31632713 76672","category":"Other"},{"name":"STARLINK-36870","line1":"1 67897U 26035U   26099.58336806 -.01944812  00000+0 -19583-1 0  9995","line2":"2 67897  97.2857  33.5660 0001877 100.4563 143.2380 15.68393566  6023","category":"Starlink"},{"name":"FLOCK 4V-17","line1":"1 46529U 20061BF  24072.11512838  .18733990  25059-5  38390-3 0  9991","line2":"2 46529  97.2807 155.8197 0014231 272.4239  87.5435 16.45886670191933","category":"Other"},{"name":"STARLINK-5228","line1":"1 54180U 22141Z   26099.58336806  .00727447  00000+0  38853-2 0  9992","line2":"2 54180  53.2166 215.7112 0000998  39.5932 157.8987 15.77834270  5744","category":"Starlink"},{"name":"GEESAT-4 M","line1":"1 65130U 25170M   25223.60358891  .07726449  11917-4  32631-3 0  9994","line2":"2 65130  50.1483 169.6903 0198369 357.4495 172.9759 16.03881457   435","category":"Other"},{"name":"FENGYUN 1C DEB","line1":"1 29959U 99025KH  26099.05276329  .00000048  00000+0  54770-4 0  9997","line2":"2 29959  98.7923 131.4225 0042058 359.4680  29.7528 14.06087855985892","category":"Weather"},{"name":"UNKNOWN","line1":"1 87065U 99025    23358.31037301  .00004460  00000+0  53013-2 0  9997","line2":"2 87065  98.7142 308.8217 0336432 350.3796   9.1002 13.46419965419703","category":"Other"},{"name":"STARLINK-6030","line1":"1 56107U 23046Q   26099.39419603 -.00000562  00000+0 -10913-4 0  9997","line2":"2 56107  43.0015 348.4607 0001293 271.0065  89.0639 15.27586674166720","category":"Starlink"},{"name":"STARLINK-34813","line1":"1 66195U 25243U   26099.31650836  .00016657  00000+0  57332-3 0  9998","line2":"2 66195  53.1593 102.9380 0000780  99.1838 260.9251 15.30197062 25344","category":"Starlink"},{"name":"STARLINK-30938","line1":"1 58389U 23178R   26099.49020890  .00000264  00000+0  21051-4 0  9996","line2":"2 58389  53.1608 218.2515 0001183  96.1547 263.9589 15.30193285134600","category":"Starlink"},{"name":"FENGYUN 1C DEB","line1":"1 31411U 99025BSX 26098.12849640  .00000805  00000+0  32336-3 0  9996","line2":"2 31411  98.6485 163.4729 0099870 274.3523 114.6053 14.28249724961417","category":"Weather"},{"name":"STARLINK-32320","line1":"1 61638U 24191T   26099.37029924 -.00023917  00000+0 -86386-3 0  9990","line2":"2 61638  43.0013 345.1321 0001078 260.5971  99.4759 15.27525675 82189","category":"Starlink"},{"name":"LEMUR-2-JACKSON","line1":"1 48885U 21059G   24039.79409617  .08844310  25698-5  13721-2 0  9990","line2":"2 48885  97.5191 196.9858 0012757 306.2590  53.7526 16.33812663146244","category":"Other"},{"name":"COSMOS 2251 DEB","line1":"1 33975U 93036FJ  26099.64913584  .00000503  00000+0  30323-3 0  9995","line2":"2 33975  73.8002 237.1512 0190671 349.3618  10.3503 14.00720691874807","category":"Other"},{"name":"ELECTRON R/B","line1":"1 57394U 23100J   23215.09717855  .08180022  33945-5  13702-2 0  9994","line2":"2 57394  99.4260 346.4930 0056586 158.7861 310.5368 16.28242089  2522","category":"Other"},{"name":"FENGYUN 1C DEB","line1":"1 37065U 99025EEZ 26093.30870609  .00002342  00000+0  24438-2 0  9992","line2":"2 37065 103.2849 312.4120 0294626   0.5086 359.6289 13.59649690237186","category":"Weather"},{"name":"STARLINK-36077","line1":"1 66903U 25283AB  26099.12092191  .00014882  00000+0  51362-3 0  9997","line2":"2 66903  53.1605 242.7882 0001239  90.7564 269.3579 15.30197495 20507","category":"Starlink"},{"name":"BEIDOU-3 IGSO-2 (C39)","line1":"1 44337U 19035A   26098.58354476 -.00000118  00000+0  00000+0 0  9995","line2":"2 44337  55.2342 159.4749 0039067 213.9094 152.2849  1.00288845 24975","category":"GPS"},{"name":"TIANQI-16","line1":"1 64058U 25105A   26099.57712675  .00000142  00000+0  18566-3 0  9997","line2":"2 64058  44.9852 327.6257 0011208  52.2840 307.9007 13.99130794 45586","category":"Other"},{"name":"CZ-6A R/B","line1":"1 62803U 25016U   25053.58664218  .00000230  00000+0  49089-4 0  9996","line2":"2 62803  89.0240 133.4287 0101244  10.0008 350.3182 14.52097846  4386","category":"Other"},{"name":"SPACEBEE-120","line1":"1 52013U 22026F   23362.50828803  .00155718  00000+0  17740-2 0  9990","line2":"2 52013  97.4909  12.3334 0013531  90.4382 269.8426 15.61636009 99626","category":"Other"},{"name":"TDRS 5","line1":"1 21639U 91054B   26099.41971121  .00000091  00000+0  00000+0 0  9990","line2":"2 21639  14.0804 354.2856 0008221 277.4348 269.6307  1.00281331127025","category":"Other"},{"name":"STARLINK-36912","line1":"1 67961U 26038A   26099.47835070  .00021149  00000+0  65539-3 0  9995","line2":"2 67961  97.2865 110.0912 0001474  59.5774 300.5614 15.33454716  7954","category":"Starlink"},{"name":"STARLINK-1766","line1":"1 46677U 20073H   23361.97788286  .00008086  00000+0  56108-3 0  9996","line2":"2 46677  53.0521 245.1294 0001445  80.4602 279.6550 15.06402942176628","category":"Starlink"},{"name":"CZ-2D R/B","line1":"1 54373U 22160B   23297.30095438  .14247314  12094-5  48314-2 0  9997","line2":"2 54373  34.9794 247.1898 0009548 206.0767 280.1295 16.24334537 51082","category":"Other"},{"name":"STARLINK-34843","line1":"1 65201U 25176D   26099.48687948  .00024056  00000+0  82150-3 0  9990","line2":"2 65201  53.1603   9.8184 0002073 103.6033 256.5199 15.30207624 37830","category":"Starlink"},{"name":"FENGYUN 1C DEB","line1":"1 30037U 99025NN  26098.89366329  .00000587  00000+0  18996-3 0  9994","line2":"2 30037  98.3999  76.2487 0174181  66.2073 327.1889 14.34296414  4675","category":"Weather"},{"name":"UNKNOWN","line1":"1 87942U          23361.12803689  .00035450  00000+0  22548-2 0  9991","line2":"2 87942  99.0613  63.7376 0098507 246.5566 112.5275 15.04721346539435","category":"Other"},{"name":"LEMUR-2-ONREFLECTION","line1":"1 56182U 23054E   23361.70161958  .00032826  00000+0  10640-2 0  9991","line2":"2 56182  97.3771 254.4737 0009075  71.6890 288.5338 15.31888793 39701","category":"Other"},{"name":"STARLINK-35529","line1":"1 66259U 25245AB  26099.42882459  .00013687  00000+0  47338-3 0  9996","line2":"2 66259  53.1593 141.0474 0001073  81.0448 279.0675 15.30200373 25965","category":"Starlink"},{"name":"KORSAT-7","line1":"1 58463U 23185B   26098.58859347  .00002118  00000+0  16961-3 0  9996","line2":"2 58463  97.6273 164.1467 0022289 201.4782 158.5509 15.01050370128846","category":"Other"},{"name":"FENGYUN 1C DEB","line1":"1 31495U 99025BWJ 26098.92553266  .00002142  00000+0  84573-3 0  9998","line2":"2 31495  99.1126 342.5410 0024828 198.2576 161.7716 14.30027766650650","category":"Weather"},{"name":"STARLINK-32344","line1":"1 61719U 24196N   26098.99266813 -.00000874  00000+0 -17386-4 0  9994","line2":"2 61719  53.1621 320.7592 0001097  88.4157 271.6970 15.30186055 81793","category":"Starlink"},{"name":"SPARTAN","line1":"1 48964U 21059CP  26099.45682065  .00053933  00000+0  43294-3 0  9997","line2":"2 48964  97.6845 292.7814 0002546 187.0817 173.0409 15.70845822267117","category":"Other"},{"name":"IRIDIUM 33 DEB","line1":"1 34077U 97051CL  26098.23693112  .00005173  00000+0  91468-3 0  9991","line2":"2 34077  86.3889   0.1014 0009728   3.5060 158.0221 14.67204402900391","category":"Other"}]}